[
{"name":"(2016 FE15)","neo_reference_id":"3748551","url":"http://ssd.jpl.nasa.gov/sbdb.cgi?sstr=3748551","api_link":"https://api.nasa.gov/neo/rest/v1/neo/3748551?api_key=CGuQueDNtud5hWODnVj9El7kwfizD8Ql2XqEz3s5","closest_approach":"2016-03-28","potentially_hazardous":false,"absolute_magnitude_h":28.83,"estimated_diameter":0.00737127505,"kilometers_per_second":12.2888141211,"miss_distance":0.7020083666,"orbital_data":{"orbit_id":"4","orbit_determination_date":"2016-04-25 12:08:25","orbit_uncertainty":"7","minimum_orbit_intersection":".00124129","jupiter_tisserand_invariant":"4.544","epoch_osculation":"2457600.5","eccentricity":".4661662044806468","semi_major_axis":"1.439921429527092","inclination":".4558746668346679","ascending_node_longitude":"17.45913893809135","orbital_period":"631.1122638795192","perihelion_distance":".7686787219741003","perihelion_argument":"96.79610071633303","aphelion_distance":"2.111164137080084","perihelion_time":"2457425.716909836634","mean_anomaly":"99.7000312939943","mean_motion":".5704214932966741","equinox":"J2000"}},
{"name":"(2016 FZ13)","neo_reference_id":"3748491","url":"http://ssd.jpl.nasa.gov/sbdb.cgi?sstr=3748491","api_link":"https://api.nasa.gov/neo/rest/v1/neo/3748491?api_key=CGuQueDNtud5hWODnVj9El7kwfizD8Ql2XqEz3s5","closest_approach":"2016-03-23","potentially_hazardous":false,"absolute_magnitude_h":28.3,"estimated_diameter":0.009408981549999999,"kilometers_per_second":4.5033537573,"miss_distance":0.9788325429,"orbital_data":{"orbit_id":"5","orbit_determination_date":"2016-04-25 12:08:15","orbit_uncertainty":"5","minimum_orbit_intersection":".00170898","jupiter_tisserand_invariant":"6.350","epoch_osculation":"2457600.5","eccentricity":".1499839583206359","semi_major_axis":".9444196944049187","inclination":"4.177915383300618","ascending_node_longitude":"183.9056815046635","orbital_period":"335.2323947138322","perihelion_distance":".8027718903221036","perihelion_argument":"238.6175634416884","aphelion_distance":"1.086067498487734","perihelion_time":"2457708.483518568721","mean_anomaly":"244.0384542253913","mean_motion":"1.073881897086081","equinox":"J2000"}},
{"name":"(2016 FU6)","neo_reference_id":"3748335","url":"http://ssd.jpl.nasa.gov/sbdb.cgi?sstr=3748335","api_link":"https://api.nasa.gov/neo/rest/v1/neo/3748335?api_key=CGuQueDNtud5hWODnVj9El7kwfizD8Ql2XqEz3s5","closest_approach":"2016-03-25","potentially_hazardous":false,"absolute_magnitude_h":28.9,"estimated_diameter":0.0071374424,"kilometers_per_second":10.2676215056,"miss_distance":0.4652176499,"orbital_data":{"orbit_id":"2","orbit_determination_date":"2016-04-25 12:07:32","orbit_uncertainty":"7","minimum_orbit_intersection":".000768178","jupiter_tisserand_invariant":"4.963","epoch_osculation":"2457600.5","eccentricity":".3796386387868952","semi_major_axis":"1.286837440111069","inclination":"1.746113735305038","ascending_node_longitude":"183.9411090901578","orbital_period":"533.1924104588398","perihelion_distance":".79830422600729","perihelion_argument":"287.2390724753478","aphelion_distance":"1.775370654214848","perihelion_time":"2457419.720858904787","mean_anomaly":"122.0581717175447","mean_motion":".6751784026524331","equinox":"J2000"}},
{"name":"(2016 GO206)","neo_reference_id":"3751199","url":"http://ssd.jpl.nasa.gov/sbdb.cgi?sstr=3751199","api_link":"https://api.nasa.gov/neo/rest/v1/neo/3751199?api_key=CGuQueDNtud5hWODnVj9El7kwfizD8Ql2XqEz3s5","closest_approach":"2016-04-06","potentially_hazardous":false,"absolute_magnitude_h":26.51,"estimated_diameter":0.0214556965,"kilometers_per_second":22.5357156907,"miss_distance":0.8563396335,"orbital_data":{"orbit_id":"4","orbit_determination_date":"2016-04-25 12:22:48","orbit_uncertainty":"8","minimum_orbit_intersection":".000381043","jupiter_tisserand_invariant":"2.934","epoch_osculation":"2457488.5","eccentricity":".7739095882906022","semi_major_axis":"2.536185902210672","inclination":"3.324409795351139","ascending_node_longitude":"196.7035970347134","orbital_period":"1475.265047431928","perihelion_distance":".5734073148023814","perihelion_argument":"271.5918777054614","aphelion_distance":"4.498964489618963","perihelion_time":"2457440.612736369535","mean_anomaly":"11.68563909039732","mean_motion":".2440239471725241","equinox":"J2000"}},
{"name":"(2016 FW13)","neo_reference_id":"3748492","url":"http://ssd.jpl.nasa.gov/sbdb.cgi?sstr=3748492","api_link":"https://api.nasa.gov/neo/rest/v1/neo/3748492?api_key=CGuQueDNtud5hWODnVj9El7kwfizD8Ql2XqEz3s5","closest_approach":"2016-04-05","potentially_hazardous":false,"absolute_magnitude_h":29.4,"estimated_diameter":0.005669472,"kilometers_per_second":10.461363732,"miss_distance":0.8176757097,"orbital_data":{"orbit_id":"5","orbit_determination_date":"2016-04-25 12:08:14","orbit_uncertainty":"7","minimum_orbit_intersection":".00114829","jupiter_tisserand_invariant":"4.893","epoch_osculation":"2457600.5","eccentricity":".3620423612990381","semi_major_axis":"1.314069494023201","inclination":"5.181797034240743","ascending_node_longitude":"194.5150596320462","orbital_period":"550.2067661936477","perihelion_distance":".8383206714960093","perihelion_argument":"67.94479124796021","aphelion_distance":"1.789818316550393","perihelion_time":"2457534.289927086949","mean_anomaly":"43.32121615587213","mean_motion":".6542994781589008","equinox":"J2000"}},
{"name":"(2016 GS134)","neo_reference_id":"3750666","url":"http://ssd.jpl.nasa.gov/sbdb.cgi?sstr=3750666","api_link":"https://api.nasa.gov/neo/rest/v1/neo/3750666?api_key=CGuQueDNtud5hWODnVj9El7kwfizD8Ql2XqEz3s5","closest_approach":"2016-04-01","potentially_hazardous":false,"absolute_magnitude_h":27.88,"estimated_diameter":0.0114167533,"kilometers_per_second":11.2388128034,"miss_distance":0.5188518763,"orbital_data":{"orbit_id":"8","orbit_determination_date":"2016-05-24 13:27:17","orbit_uncertainty":"7","minimum_orbit_intersection":".000833943","jupiter_tisserand_invariant":"3.800","epoch_osculation":"2457600.5","eccentricity":".531568289806298","semi_major_axis":"1.868423787368973","inclination":".09016511663424158","ascending_node_longitude":"44.63299713948501","orbital_period":"932.8493398099819","perihelion_distance":".8752289500838418","perihelion_argument":"96.87551282058809","aphelion_distance":"2.861618624654104","perihelion_time":"2457442.834078011109","mean_anomaly":"60.84555082341851","mean_motion":".3859144072217822","equinox":"J2000"}},
{"name":"(2016 GN134)","neo_reference_id":"3750663","url":"http://ssd.jpl.nasa.gov/sbdb.cgi?sstr=3750663","api_link":"https://api.nasa.gov/neo/rest/v1/neo/3750663?api_key=CGuQueDNtud5hWODnVj9El7kwfizD8Ql2XqEz3s5","closest_approach":"2016-04-04","potentially_hazardous":false,"absolute_magnitude_h":30.3,"estimated_diameter":0.003745783,"kilometers_per_second":13.9042338464,"miss_distance":0.1487774849,"orbital_data":{"orbit_id":"3","orbit_determination_date":"2016-04-25 12:21:33","orbit_uncertainty":"7","minimum_orbit_intersection":".000377699","jupiter_tisserand_invariant":"4.120","epoch_osculation":"2457600.5","eccentricity":".5266893639088313","semi_major_axis":"1.643206218459","inclination":"3.811240419638584","ascending_node_longitude":"194.7305480916604","orbital_period":"769.3722740462451","perihelion_distance":".7777469804877931","perihelion_argument":"291.0333067604877","aphelion_distance":"2.508665456430206","perihelion_time":"2457436.418614325875","mean_anomaly":"76.77596507608814","mean_motion":".4679139243044275","equinox":"J2000"}},
{"name":"(2016 GO134)","neo_reference_id":"3750662","url":"http://ssd.jpl.nasa.gov/sbdb.cgi?sstr=3750662","api_link":"https://api.nasa.gov/neo/rest/v1/neo/3750662?api_key=CGuQueDNtud5hWODnVj9El7kwfizD8Ql2XqEz3s5","closest_approach":"2016-04-08","potentially_hazardous":false,"absolute_magnitude_h":27.319,"estimated_diameter":0.0147823206,"kilometers_per_second":15.2554216338,"miss_distance":0.8632847667,"orbital_data":{"orbit_id":"2","orbit_determination_date":"2016-04-25 12:21:33","orbit_uncertainty":"7","minimum_orbit_intersection":".000846317","jupiter_tisserand_invariant":"3.225","epoch_osculation":"2457600.5","eccentricity":".6437528243447271","semi_major_axis":"2.363373798584335","inclination":"7.044563973455491","ascending_node_longitude":"18.89979322910657","orbital_period":"1327.079839321033","perihelion_distance":".841945240763343","perihelion_argument":"234.1403796887831","aphelion_distance":"3.884802356405327","perihelion_time":"2457524.420887750963","mean_anomaly":"20.63815574477125","mean_motion":".2712722997767676","equinox":"J2000"}},
{"name":"(2016 JS5)","neo_reference_id":"3752783","url":"http://ssd.jpl.nasa.gov/sbdb.cgi?sstr=3752783","api_link":"https://api.nasa.gov/neo/rest/v1/neo/3752783?api_key=CGuQueDNtud5hWODnVj9El7kwfizD8Ql2XqEz3s5","closest_approach":"2016-05-05","potentially_hazardous":false,"absolute_magnitude_h":30.625,"estimated_diameter":0.00322509575,"kilometers_per_second":16.0778261266,"miss_distance":0.5272652507,"orbital_data":{"orbit_id":"3","orbit_determination_date":"2016-05-24 13:31:18","orbit_uncertainty":"6","minimum_orbit_intersection":".000295272","jupiter_tisserand_invariant":"3.462","epoch_osculation":"2457600.5","eccentricity":".6266349840185949","semi_major_axis":"2.105057097623044","inclination":"3.054260725886472","ascending_node_longitude":"45.41942313997218","orbital_period":"1115.563373868333","perihelion_distance":".7859546768957981","perihelion_argument":"245.0793245123775","aphelion_distance":"3.424159518350289","perihelion_time":"2457557.326818177953","mean_anomaly":"13.9322837411221","mean_motion":".3227069016721678","equinox":"J2000"}}
]



